stk.v.4.3

BEGIN Ephemeris

NumberOfEphemerisPoints   2890

ScenarioEpoch           22 Feb 2005 21:15:59.638752
InterpolationMethod     Lagrange
InterpolationOrder      7
CentralBody             Earth
CoordinateSystem        Custom Topo Facility/Algonquin
DistanceUnit        Kilometers

EphemerisTimePosVel

4920.0 -21780.59819517645 13230.61932947965 1032.821196979478 1.343464549117492 0.7081772524666016 2.602499442240781 
4980.0 -21699.6488533327 13272.36021898747 1189.135129701347 1.352658112314034 0.6840141572788753 2.600190928870673 
5040.0 -21618.16286990085 13312.65015025535 1345.272664513345 1.361637999982047 0.659725245299138 2.597754976170134 
5100.0 -21536.15336170447 13351.48202607269 1501.226231433699 1.370403693856348 0.6353134732206565 2.59519067473275 
5160.0 -21453.63347096333 13388.84892946289 1656.988213047908 1.378954712232753 0.610781809957377 2.592497122066051 
5220.0 -21370.61636298134 13424.74412446449 1812.55094472131 1.387290610007711 0.5861332362159024 2.589673422861242 
5280.0 -21287.11522395245 13459.1610564587 1967.906715252659 1.39541097875071 0.5613707440935244 2.586718689235356 
5340.0 -21203.14325864094 13492.09335292549 2123.047767087483 1.403315446728321 0.5364973366460823 2.583632041002221 
5400.0 -21118.71368818381 13523.53482372077 2277.966296997388 1.411003678964454 0.5115160274841613 2.580412605913631 
5460.0 -21033.83974778063 13553.47946175065 2432.654456350041 1.418475377254029 0.4864298403408185 2.577059519927693 
5520.0 -20948.53468445896 13581.9214433376 2587.104351675158 1.425730280197179 0.4612418086568222 2.573571927458179 
5580.0 -20862.81175483776 13608.8551285625 2741.308045241718 1.432768163227663 0.4359549751653056 2.569948981623123 
5640.0 -20776.68422282419 13634.27506185787 2895.257555371851 1.439588838606766 0.4105723914569084 2.566189844511658 
5700.0 -20690.16535741395 13658.17597215928 3048.944857183734 1.446192155453145 0.3850971175724749 2.562293687421826 
5760.0 -20603.2684303871 13680.55277347282 3202.361882906378 1.452577999720893 0.3595322215649388 2.558259691127985 
5820.0 -20516.0067141102 13701.4005649763 3355.50052264757 1.458746294217206 0.3338807790910698 2.554087046116938 
5880.0 -20428.39347924609 13720.71463150603 3508.352624763993 1.464696998570303 0.3081458729742221 2.549774952851899 
5940.0 -20340.44199253017 13738.49044374315 3660.909996519278 1.470430109220008 0.2823305927856639 2.545322622016418 
6000.0 -20252.16551454727 13754.72365837645 3813.164404752646 1.475945659402546 0.2564380344258013 2.540729274757234 
6060.0 -20163.5772974568 13769.41011850833 3965.107576291996 1.481243719098755 0.2304712996857221 2.535994142945587 
6120.0 -20074.69058280051 13782.54585365784 4116.731198757179 1.486324395018342 0.2044334958356453 2.531116469410248 
6180.0 -19985.51859925871 13794.12708000766 4268.026921106783 1.491187830547674 0.1783277351938963 2.526095508188861 
6240.0 -19896.07456041495 13804.15020062334 4418.986354199711 1.495834205690743 0.1521571346957227 2.520930524778308 
6300.0 -19806.37166257418 13812.61180538213 4569.6010716348 1.500263737035405 0.125924815481677 2.515620796364059 
6360.0 -19716.4230825147 13819.50867127337 4719.86261020588 1.504476677666089 0.09963390245668302 2.510165612077943 
6420.0 -19626.24197532078 13824.83776225133 4869.762470791869 1.50847331712106 0.07328752388065651 2.504564273222886 
6480.0 -19535.8414721504 13828.59622948266 5019.292118839409 1.512253981292227 0.04688881092777431 2.49881609352812 
6540.0 -19445.2346780782 13830.78141115032 5168.442985276352 1.515819032370448 0.02044089727761445 2.492920399371072 
6600.0 -19354.43466988418 13831.39083262287 5317.206467047002 1.519168868735811 -0.006053081323074139 2.48687653002778 
6660.0 -19263.45449389094 13830.42220633802 5465.573927920684 1.522303924874323 -0.03258998747846476 2.480683837901812 
6720.0 -19172.30716380564 13827.87343166328 5613.53669930981 1.52522467128894 -0.05916668256115298 2.474341688751574 
6780.0 -19081.00565853758 13823.74259498662 5761.086080846117 1.527931614370681 -0.08578002714926414 2.467849461936158 
6840.0 -18989.56292007358 13818.02796939967 5908.213341350529 1.530425296314303 -0.1124268814328471 2.461206550629321 
6900.0 -18897.99185131252 13810.72801476235 6054.909719409739 1.532706294973483 -0.1391041056518507 2.454412362064058 
6960.0 -18806.30531395601 13801.84137733841 6201.166424368492 1.5347752237648 -0.165808560501159 2.447466317743072 
7020.0 -18714.51612636756 13791.36688978392 6346.974636956579 1.536632731513898 -0.192537107565119 2.440367853677824 
7080.0 -18622.63706146928 13779.30357085944 6492.325510179068 1.538279502330137 -0.2192866097311015 2.433116420605499 
7140.0 -18530.68084464542 13765.65062511984 6637.210170216235 1.539716255475787 -0.246053931602128 2.425711484204026 
7200.0 -18438.6601516383 13750.40744282635 6781.619717088624 1.540943745193478 -0.2728359399288229 2.418152525325537 
7260.0 -18346.5876064827 13733.57359946447 6925.545225703261 1.541962760581356 -0.2996295040100094 2.410439040197296 
7320.0 -18254.47577942544 13715.14885563081 7068.977746518618 1.542774125404776 -0.3264314961246284 2.402570540653198 
7380.0 -18162.33718487968 13695.13315650486 7211.908306611066 1.543378697960093 -0.3532387919300879 2.394546554330599 
7440.0 -18070.18427937166 13673.52663168588 7354.327910364682 1.54377737087422 -0.3800482708919627 2.386366624897623 
7500.0 -17978.02945951588 13650.3295946429 7496.227540534036 1.543971070953419 -0.4068568166819033 2.378030312247729 
7560.0 -17885.8850599922 13625.54254238308 7637.598159076637 1.543960758989611 -0.4336613175946319 2.369537192712459 
7620.0 -17793.76335154033 13599.16615507101 7778.430708021642 1.54374742956427 -0.4604586669614914 2.360886859269921 
7680.0 -17701.67653896883 13571.20129552927 7918.716110444355 1.543332110861615 -0.4872457635544574 2.352078921742779 
7740.0 -17609.63675917454 13541.64900869367 8058.445271473523 1.542715864480325 -0.5140195119866885 2.343113006991858 
7800.0 -17517.65607918016 13510.51052128023 8197.609079074336 1.541899785201185 -0.5407768231317461 2.333988759127824 
7860.0 -17425.74649418005 13477.78724107724 8336.198405193445 1.540885000806739 -0.56751461451087 2.324705839689762 
7920.0 -17333.91992561003 13443.48075658822 8474.204106540841 1.539672671833621 -0.5942298107109882 2.315263927853971 
7980.0 -17242.18821921934 13407.59283628067 8611.617025752721 1.538263991381497 -0.6209193437685925 2.305662720607607 
8040.0 -17150.56314317242 13370.12542815917 8748.42799221816 1.536660184857984 -0.6475801535822573 2.29590193295034 
8100.0 -17059.05638615664 13331.08065908496 8884.627823146067 1.534862509757134 -0.674209188303033 2.285981298073049 
8160.0 -16967.67955550153 13290.46083407541 9020.20732463997 1.532872255432981 -0.70080340472301 2.275900567533886 
8220.0 -16876.44417533433 13248.26843580763 9155.157292556363 1.530690742827604 -0.7273597686821202 2.265659511452002 
8280.0 -16785.36168472175 13204.50612376106 9289.468513710864 1.528319324254022 -0.7538752554426598 2.255257918668078 
8340.0 -16694.44343586365 13159.17673369861 9423.131766734241 1.525759383109373 -0.7803468500940239 2.244695596934577 
8400.0 -16603.7006922647 13112.28327676804 9556.137823294792 1.52301233364768 -0.8067715479231203 2.233972373070758 
8460.0 -16513.14462696619 13063.82893893823 9688.47744897423 1.520079620682254 -0.8331463548147908 2.223088093147254 
8520.0 -16422.78632074861 13013.8170800601 9820.141404505732 1.516962719348503 -0.8594682876178782 2.21204262263545 
8580.0 -16332.63676039882 12962.25123323715 9951.12044669056 1.513663134799944 -0.8857343745391127 2.200835846584215 
8640.0 -16242.70683696406 12909.13510395469 10081.40532954342 1.510182401940329 -0.9119416555146277 2.189467669773488 
8700.0 -16153.00734401996 12854.47256919072 10210.98680544337 1.50652208515116 -0.9380871825791558 2.177938016865007 
8760.0 -16063.54897599919 12798.26767672159 10339.85562607856 1.502683777972179 -0.9641680202526499 2.166246832569965 
8820.0 -15974.34232648059 12740.5246441055 10468.00254369992 1.498669102835851 -0.9901812458966587 2.154394081785623 
8880.0 -15885.39788653876 12681.24785786197 10595.41831216702 1.494479710754985 -1.016123950087987 2.142379749748867 
8940.0 -15796.72604311749 12620.44187262931 10722.09368800395 1.490117281005208 -1.041993236989673 2.130203842186532 
9000.0 -15708.3370773702 12558.11141009133 10848.01943167298 1.485583520845651 -1.067786224699788 2.11786638544276 
9060.0 -15620.24116309932 12494.26135820128 10973.1863085397 1.480880165170547 -1.093500045626845 2.105367426632896 
9120.0 -15532.44836512812 12428.89677005017 11097.58509018086 1.476008976225178 -1.119131846831295 2.09270703376252 
9180.0 -15444.96863777796 12362.02286302985 11221.20655538594 1.470971743252369 -1.144678790393415 2.079885295872805 
9240.0 -15357.81182330949 12293.64501776801 11344.0414913743 1.46577028217773 -1.17013805375889 2.066902323162864 
9300.0 -15270.98765037993 12223.76877704657 11466.08069501689 1.460406435290798 -1.195506830081651 2.053758247108896 
9360.0 -15184.50573258931 12152.39984490565 11587.31497386082 1.454882070877701 -1.220782328582948 2.040453220599415 
9420.0 -15098.37556694604 12079.54408542315 11707.73514746559 1.449199082915604 -1.245961774878685 2.026987418037932 
9480.0 -15012.60653246595 12005.20752180136 11827.33204842115 1.443359390692138 -1.271042411334329 2.013361035473253 
9540.0 -14927.20788867683 11929.39633511254 11946.09652369416 1.437364938491627 -1.29602149738625 1.999574290695446 
9600.0 -14842.18877425679 11852.11686332828 12064.01943567953 1.4312176952104 -1.320896309888473 1.985627423357176 
9660.0 -14757.55820562011 11773.37560013061 12181.0916634577 1.424919654012519 -1.345664143437232 1.971520695072325 
9720.0 -14673.32507552054 11693.17919370782 12297.30410405537 1.418472831981761 -1.370322310692498 1.957254389511235 
9780.0 -14589.49815176339 11611.53444572933 12412.64767351606 1.41187926972444 -1.394868142714883 1.94282881251126 
